CTC2_L_00532021-03
1 60770U 24127O   26037.47798611  .00000000  00000+0  00000-0 0  9996
2 60770  97.4000 240.0000 0000000   0.0000 200.0000 15.08755970    18
CTC2_L_00532022-01
1 60771U 24494JI  26037.47798611  .00000000  00000+0  00000-0 0  9994
2 60771  97.4000 252.0000 0000000   0.0000 336.0000 15.08755970    12
CTC2_L_00532022-02
1 60772U 26870NO  26037.47798611  .00000000  00000+0  00000-0 0  9995
2 60772  97.4000 252.0000 0000000   0.0000  96.0000 15.08755970    16
CTC2_L_00532022-03
1 60773U 22128QJ  26037.47798611  .00000000  00000+0  00000-0 0  9998
2 60773  97.4000 252.0000 0000000   0.0000 216.0000 15.08755970    11
CTC2_L_00532023-01
1 60774U 22028JQ  26037.47798611  .00000000  00000+0  00000-0 0  9998
2 60774  97.4000 264.0000 0000000   0.0000 352.0000 15.08755970    16
CTC2_L_00532023-02
1 60775U 26192ZN  26037.47798611  .00000000  00000+0  00000-0 0  9995
2 60775  97.4000 264.0000 0000000   0.0000 112.0000 15.08755970    11
CTC2_L_00532023-03
1 60776U 23161GL  26037.47798611  .00000000  00000+0  00000-0 0  9999
2 60776  97.4000 264.0000 0000000   0.0000 232.0000 15.08755970    15
CTC2_L_00532024-01
1 60777U 26088DV  26037.47798611  .00000000  00000+0  00000-0 0  9991
2 60777  97.4000 276.0000 0000000   0.0000   8.0000 15.08755970    10
CTC2_L_00532024-02
1 60778U 22952CP  26037.47798611  .00000000  00000+0  00000-0 0  9998
2 60778  97.4000 276.0000 0000000   0.0000 128.0000 15.08755970    14
CTC2_L_00532024-03
1 60779U 25690NH  26037.47798611  .00000000  00000+0  00000-0 0  9991
2 60779  97.4000 276.0000 0000000   0.0000 248.0000 15.08755970    18
CTC2_L_00532025-01
1 60780U 22761PP  26037.47798611  .00000000  00000+0  00000-0 0  9999
2 60780  97.4000 288.0000 0000000   0.0000  24.0000 15.08755970    15
CTC2_L_00532025-02
1 60781U 26706UV  26037.47798611  .00000000  00000+0  00000-0 0  9993
2 60781  97.4000 288.0000 0000000   0.0000 144.0000 15.08755970    19
CTC2_L_00532025-03
1 60782U 23319XB  26037.47798611  .00000000  00000+0  00000-0 0  9991
2 60782  97.4000 288.0000 0000000   0.0000 264.0000 15.08755970    13
CTC2_L_00532026-01
1 60783U 23263NZ  26037.47798611  .00000000  00000+0  00000-0 0  9990
2 60783  97.4000 300.0000 0000000   0.0000  40.0000 15.08755970    11
CTC2_L_00532026-02
1 60784U 23025MZ  26037.47798611  .00000000  00000+0  00000-0 0  9997
2 60784  97.4000 300.0000 0000000   0.0000 160.0000 15.08755970    15
CTC2_L_00532026-03
1 60785U 26536QH  26037.47798611  .00000000  00000+0  00000-0 0  9998
2 60785  97.4000 300.0000 0000000   0.0000 280.0000 15.08755970    19
CTC2_L_00532027-01
1 60786U 24921XA  26037.47798611  .00000000  00000+0  00000-0 0  9995
2 60786  97.4000 312.0000 0000000   0.0000  56.0000 15.08755970    14
CTC2_L_00532027-02
1 60787U 26037YM  26037.47798611  .00000000  00000+0  00000-0 0  9996
2 60787  97.4000 312.0000 0000000   0.0000 176.0000 15.08755970    18
CTC2_L_00532027-03
1 60788U 25721AD  26037.47798611  .00000000  00000+0  00000-0 0  9996
2 60788  97.4000 312.0000 0000000   0.0000 296.0000 15.08755970    12
CTC2_L_00532028-01
1 60789U 22931GX  26037.47798611  .00000000  00000+0  00000-0 0  9997
2 60789  97.4000 324.0000 0000000   0.0000  72.0000 15.08755970    18
CTC2_L_00532028-02
1 60790U 24020QM  26037.47798611  .00000000  00000+0  00000-0 0  9990
2 60790  97.4000 324.0000 0000000   0.0000 192.0000 15.08755970    13
CTC2_L_00532028-03
1 60791U 22187YT  26037.47798611  .00000000  00000+0  00000-0 0  9993
2 60791  97.4000 324.0000 0000000   0.0000 312.0000 15.08755970    18
CTC2_L_00532029-01
1 60792U 23518LR  26037.47798611  .00000000  00000+0  00000-0 0  9993
2 60792  97.4000 336.0000 0000000   0.0000  88.0000 15.08755970    12
CTC2_L_00532029-02
1 60793U 24055MM  26037.47798611  .00000000  00000+0  00000-0 0  9991
2 60793  97.4000 336.0000 0000000   0.0000 208.0000 15.08755970    17
CTC2_L_00532029-03
1 60794U 22042QJ  26037.47798611  .00000000  00000+0  00000-0 0  9996
2 60794  97.4000 336.0000 0000000   0.0000 328.0000 15.08755970    11
CTC2_L_00532030-01
1 60795U 25125QH  26037.47798611  .00000000  00000+0  00000-0 0  9992
2 60795  97.4000 348.0000 0000000   0.0000 104.0000 15.08755970    17
CTC2_L_00532030-02
1 60796U 22325IY  26037.47798611  .00000000  00000+0  00000-0 0  9992
2 60796  97.4000 348.0000 0000000   0.0000 224.0000 15.08755970    11
CTC2_L_00532030-03
1 60797U 26113BS  26037.47798611  .00000000  00000+0  00000-0 0  9992
2 60797  97.4000 348.0000 0000000   0.0000 344.0000 15.08755970    15
